GSAT0213 (GALILEO 17)   
1 41861U 16069C   26115.17360778  .00000045  00000+0  00000+0 0  9993
2 41861  55.4662 102.5544 0005854 302.3888  57.5492  1.70474518 58614
GSAT0214 (GALILEO 18)   
1 41862U 16069D   26115.90630783  .00000045  00000+0  00000+0 0  9991
2 41862  55.4649 102.5269 0004911 307.4506  52.4995  1.70474260 58751
SES-15 (WAAS/PRN 133)   
1 42709U 17026A   26116.49142088  .00000047  00000+0  00000+0 0  9999
2 42709   0.0246 323.5055 0000687  42.7551 255.9922  1.00270678  6915
QZS-2 (QZSS/PRN 194)    
1 42738U 17028A   26116.23428737 -.00000266  00000+0  00000+0 0  9997
2 42738  39.5095 243.9120 0740318 270.8047 281.9812  1.00247520  7109
QZS-3 (QZSS/PRN 199)    
1 42917U 17048A   26116.41780597 -.00000360  00000+0  00000+0 0  9998
2 42917   0.0512 183.0161 0001355 199.0422 109.8075  1.00271124 31747
COSMOS 2522 (752)       
1 42939U 17055A   26115.09669524 -.00000017  00000+0  00000+0 0  9998
2 42939  64.0763 193.6909 0009475 236.5464 123.4103  2.13101747 66841
QZS-4 (QZSS/PRN 195)    
1 42965U 17062A   26112.66690654 -.00000326  00000+0  00000+0 0  9996
2 42965  40.1416 344.1915 0746625 270.8161 335.9811  1.00266456 31246
BEIDOU-3 M1 (C19)       
1 43001U 17069A   26114.43741611 -.00000021  00000+0  00000+0 0  9994
2 43001  56.6481  64.8538 0012244 317.8218  42.0593  1.86230859 57600
BEIDOU-3 M2 (C20)       
1 43002U 17069B   26114.91298418 -.00000024  00000+0  00000+0 0  9993
2 43002  56.6476  64.8741 0010188 339.1102  20.8228  1.86230354 57604
GSAT0215 (GALILEO 19)   
1 43055U 17079A   26113.46347810 -.00000022  00000+0  00000+0 0  9990
2 43055  55.0907 223.0118 0001428 264.4741  95.5096  1.70474699 52058
GSAT0216 (GALILEO 20)   
1 43056U 17079B   26114.92781412 -.00000034  00000+0  00000+0 0  9996
2 43056  55.0895 222.9715 0002775 284.1808  75.7828  1.70474805 52091
GSAT0217 (GALILEO 21)   
1 43057U 17079C   26115.73516486 -.00000038  00000+0  00000+0 0  9998
2 43057  55.0878 222.9473 0002331 303.6417  56.3281  1.70474757 52099
GSAT0218 (GALILEO 22)   
1 43058U 17079D   26115.95522277 -.00000039  00000+0  00000+0 0  9999
2 43058  55.0879 222.9388 0003183 277.2874  82.6679  1.70474761 52127
BEIDOU-3 M7 (C27)       
1 43107U 18003A   26114.11756823 -.00000045  00000+0  00000+0 0  9992
2 43107  54.3768 304.1996 0005304  82.0952 277.9663  1.86227876 56345
BEIDOU-3 M8 (C28)       
1 43108U 18003B   26116.21099341 -.00000057  00000+0  00000+0 0  9994
2 43108  54.3677 304.1086 0002210 285.7266  74.2493  1.86230727 56391
BEIDOU-3 M4 (C22)       
1 43207U 18018A   26115.04264605 -.00000025  00000+0  00000+0 0  9992
2 43207  56.6074  64.8995 0007871   1.7700 358.2071  1.86230859 55755
BEIDOU-3 M3 (C21)       
1 43208U 18018B   26115.10909459 -.00000026  00000+0  00000+0 0  9994
2 43208  56.6071  64.9014 0010072 329.7984  30.1179  1.86230788 55756
